ALOS-2                  
1 39766U 14029A   26070.95064745  .00001543  00000+0  21322-3 0  9997
2 39766  97.9187 169.5145 0001471  99.1465 260.9913 14.79512824637203
YAOGAN-29               
1 41038U 15069A   26070.95358594  .00000270  00000+0  39945-4 0  9992
2 41038  98.0145  99.3890 0001709  31.7254 328.4062 14.82996960556210
ASTRO-H (HITOMI)        
1 41337U 16012A   26070.88158224  .00003480  00000+0  20300-3 0  9993
2 41337  31.0005 342.4035 0009758 353.3089   6.7418 15.10022919552569
HXMT (HUIYAN)           
1 42758U 17034A   26070.94975556  .00006773  00000+0  33864-3 0  9995
2 42758  43.0160   4.1078 0033159 249.7518 109.9763 15.17500690482888
SAOCOM 1A               
1 43641U 18076A   26070.98832983  .00000929  00000+0  12328-3 0  9993
2 43641  97.8897 259.1281 0001365  87.5946 272.5424 14.82141788401702
H-2A R/B                
1 43682U 18084L   26070.94000374  .00019315  00000+0  45832-3 0  9999
2 43682  98.8732 288.8089 0025241  17.6569 342.5545 15.41452758406126
SAOCOM 1B               
1 46265U 20059A   26070.95206865  .00001324  00000+0  17292-3 0  9998
2 46265  97.8897 258.1901 0001425  85.9842 274.1534 14.82153154299085
CSS (TIANHE)            
1 48274U 21035A   26070.76324018  .00028963  00000+0  34031-3 0  9993
2 48274  41.4661 195.5440 0006799 284.6024  75.4061 15.60782980277931
COSMOS 2550             
1 48865U 21056A   26070.99521675 -.00000197  00000+0 -15768-6 0  9995
2 48865  67.1436  33.9578 0008343 269.2477  90.7722 15.33836680263810
CZ-2C R/B               
1 52794U 22058K   26070.95530371  .00032160  00000+0  46729-3 0  9994
2 52794  50.1894 306.6341 0042100 210.3901 149.4628 15.54409815210483
CZ-2C R/B               
1 54039U 22132E   26070.93427834  .00046042  00000+0  52057-3 0  9993
2 54039  97.2967  74.3194 0020407  84.1845 276.1738 15.62065660190724
GSLV R/B                
1 54149U 22138AN  26070.72648202  .00004056  00000+0  35019-3 0  9990
2 54149  87.3873 165.6803 0023206 139.7353 220.5603 14.96791230184232
