CCSDS_OMM_VERS = 2.0
CREATION_DATE  = 
ORIGINATOR     = 

OBJECT_NAME    = ALOS-2
OBJECT_ID      = 2014-029A
CENTER_NAME    = EARTH
REF_FRAME      = TEME
TIME_SYSTEM    = UTC
MEAN_ELEMENT_THEORY = SGP/SGP4

EPOCH          = 2026-03-11T22:48:55.939680
MEAN_MOTION    = 14.79512824
ECCENTRICITY   = .00014712
INCLINATION    = 97.9187
RA_OF_ASC_NODE = 169.5145
ARG_OF_PERICENTER = 99.1465
MEAN_ANOMALY   = 260.9913

EPHEMERIS_TYPE = 0
CLASSIFICATION_TYPE = U
NORAD_CAT_ID   = 39766
ELEMENT_SET_NO = 999
REV_AT_EPOCH   = 63720
BSTAR          = .21321819E-3
MEAN_MOTION_DOT = .1543E-4
MEAN_MOTION_DDOT = 0

CCSDS_OMM_VERS = 2.0
CREATION_DATE  = 
ORIGINATOR     = 

OBJECT_NAME    = YAOGAN-29
OBJECT_ID      = 2015-069A
CENTER_NAME    = EARTH
REF_FRAME      = TEME
TIME_SYSTEM    = UTC
MEAN_ELEMENT_THEORY = SGP/SGP4

EPOCH          = 2026-03-11T22:53:09.825216
MEAN_MOTION    = 14.82996960
ECCENTRICITY   = .00017097
INCLINATION    = 98.0145
RA_OF_ASC_NODE = 99.3890
ARG_OF_PERICENTER = 31.7254
MEAN_ANOMALY   = 328.4062

EPHEMERIS_TYPE = 0
CLASSIFICATION_TYPE = U
NORAD_CAT_ID   = 41038
ELEMENT_SET_NO = 999
REV_AT_EPOCH   = 55621
BSTAR          = .39944692E-4
MEAN_MOTION_DOT = .27E-5
MEAN_MOTION_DDOT = 0

CCSDS_OMM_VERS = 2.0
CREATION_DATE  = 
ORIGINATOR     = 

OBJECT_NAME    = ASTRO-H (HITOMI)
OBJECT_ID      = 2016-012A
CENTER_NAME    = EARTH
REF_FRAME      = TEME
TIME_SYSTEM    = UTC
MEAN_ELEMENT_THEORY = SGP/SGP4

EPOCH          = 2026-03-11T21:09:28.705536
MEAN_MOTION    = 15.10022919
ECCENTRICITY   = .00097583
INCLINATION    = 31.0005
RA_OF_ASC_NODE = 342.4035
ARG_OF_PERICENTER = 353.3089
MEAN_ANOMALY   = 6.7418

EPHEMERIS_TYPE = 0
CLASSIFICATION_TYPE = U
NORAD_CAT_ID   = 41337
ELEMENT_SET_NO = 999
REV_AT_EPOCH   = 55256
BSTAR          = .20299936E-3
MEAN_MOTION_DOT = .348E-4
MEAN_MOTION_DDOT = 0

CCSDS_OMM_VERS = 2.0
CREATION_DATE  = 
ORIGINATOR     = 

OBJECT_NAME    = HXMT (HUIYAN)
OBJECT_ID      = 2017-034A
CENTER_NAME    = EARTH
REF_FRAME      = TEME
TIME_SYSTEM    = UTC
MEAN_ELEMENT_THEORY = SGP/SGP4

EPOCH          = 2026-03-11T22:47:38.880384
MEAN_MOTION    = 15.17500690
ECCENTRICITY   = .00331594
INCLINATION    = 43.0160
RA_OF_ASC_NODE = 4.1078
ARG_OF_PERICENTER = 249.7518
MEAN_ANOMALY   = 109.9763

EPHEMERIS_TYPE = 0
CLASSIFICATION_TYPE = U
NORAD_CAT_ID   = 42758
ELEMENT_SET_NO = 999
REV_AT_EPOCH   = 48288
BSTAR          = .3386438E-3
MEAN_MOTION_DOT = .6773E-4
MEAN_MOTION_DDOT = 0

CCSDS_OMM_VERS = 2.0
CREATION_DATE  = 
ORIGINATOR     = 

OBJECT_NAME    = SAOCOM 1A
OBJECT_ID      = 2018-076A
CENTER_NAME    = EARTH
REF_FRAME      = TEME
TIME_SYSTEM    = UTC
MEAN_ELEMENT_THEORY = SGP/SGP4

EPOCH          = 2026-03-11T23:43:11.697312
MEAN_MOTION    = 14.82141788
ECCENTRICITY   = .00013652
INCLINATION    = 97.8897
RA_OF_ASC_NODE = 259.1281
ARG_OF_PERICENTER = 87.5946
MEAN_ANOMALY   = 272.5424

EPHEMERIS_TYPE = 0
CLASSIFICATION_TYPE = U
NORAD_CAT_ID   = 43641
ELEMENT_SET_NO = 999
REV_AT_EPOCH   = 40170
BSTAR          = .12327917E-3
MEAN_MOTION_DOT = .929E-5
MEAN_MOTION_DDOT = 0

CCSDS_OMM_VERS = 2.0
CREATION_DATE  = 
ORIGINATOR     = 

OBJECT_NAME    = H-2A R/B
OBJECT_ID      = 2018-084L
CENTER_NAME    = EARTH
REF_FRAME      = TEME
TIME_SYSTEM    = UTC
MEAN_ELEMENT_THEORY = SGP/SGP4

EPOCH          = 2026-03-11T22:33:36.323136
MEAN_MOTION    = 15.41452758
ECCENTRICITY   = .0025241
INCLINATION    = 98.8732
RA_OF_ASC_NODE = 288.8089
ARG_OF_PERICENTER = 17.6569
MEAN_ANOMALY   = 342.5545

EPHEMERIS_TYPE = 0
CLASSIFICATION_TYPE = U
NORAD_CAT_ID   = 43682
ELEMENT_SET_NO = 999
REV_AT_EPOCH   = 40612
BSTAR          = .45831701E-3
MEAN_MOTION_DOT = .19315E-3
MEAN_MOTION_DDOT = 0

CCSDS_OMM_VERS = 2.0
CREATION_DATE  = 
ORIGINATOR     = 

OBJECT_NAME    = SAOCOM 1B
OBJECT_ID      = 2020-059A
CENTER_NAME    = EARTH
REF_FRAME      = TEME
TIME_SYSTEM    = UTC
MEAN_ELEMENT_THEORY = SGP/SGP4

EPOCH          = 2026-03-11T22:50:58.731360
MEAN_MOTION    = 14.82153154
ECCENTRICITY   = .00014253
INCLINATION    = 97.8897
RA_OF_ASC_NODE = 258.1901
ARG_OF_PERICENTER = 85.9842
MEAN_ANOMALY   = 274.1534

EPHEMERIS_TYPE = 0
CLASSIFICATION_TYPE = U
NORAD_CAT_ID   = 46265
ELEMENT_SET_NO = 999
REV_AT_EPOCH   = 29908
BSTAR          = .17291611E-3
MEAN_MOTION_DOT = .1324E-4
MEAN_MOTION_DDOT = 0

CCSDS_OMM_VERS = 2.0
CREATION_DATE  = 
ORIGINATOR     = 

OBJECT_NAME    = CSS (TIANHE)
OBJECT_ID      = 2021-035A
CENTER_NAME    = EARTH
REF_FRAME      = TEME
TIME_SYSTEM    = UTC
MEAN_ELEMENT_THEORY = SGP/SGP4

EPOCH          = 2026-03-11T18:19:03.951552
MEAN_MOTION    = 15.60782980
ECCENTRICITY   = .00067997
INCLINATION    = 41.4661
RA_OF_ASC_NODE = 195.5440
ARG_OF_PERICENTER = 284.6024
MEAN_ANOMALY   = 75.4061

EPHEMERIS_TYPE = 0
CLASSIFICATION_TYPE = U
NORAD_CAT_ID   = 48274
ELEMENT_SET_NO = 999
REV_AT_EPOCH   = 27793
BSTAR          = .34030992E-3
MEAN_MOTION_DOT = .28963E-3
MEAN_MOTION_DDOT = 0

CCSDS_OMM_VERS = 2.0
CREATION_DATE  = 
ORIGINATOR     = 

OBJECT_NAME    = COSMOS 2550
OBJECT_ID      = 2021-056A
CENTER_NAME    = EARTH
REF_FRAME      = TEME
TIME_SYSTEM    = UTC
MEAN_ELEMENT_THEORY = SGP/SGP4

EPOCH          = 2026-03-11T23:53:06.727200
MEAN_MOTION    = 15.33836680
ECCENTRICITY   = .0008343
INCLINATION    = 67.1436
RA_OF_ASC_NODE = 33.9578
ARG_OF_PERICENTER = 269.2477
MEAN_ANOMALY   = 90.7722

EPHEMERIS_TYPE = 0
CLASSIFICATION_TYPE = U
NORAD_CAT_ID   = 48865
ELEMENT_SET_NO = 999
REV_AT_EPOCH   = 26381
BSTAR          = -.15768E-6
MEAN_MOTION_DOT = -.197E-5
MEAN_MOTION_DDOT = 0

CCSDS_OMM_VERS = 2.0
CREATION_DATE  = 
ORIGINATOR     = 

OBJECT_NAME    = CZ-2C R/B
OBJECT_ID      = 2022-058K
CENTER_NAME    = EARTH
REF_FRAME      = TEME
TIME_SYSTEM    = UTC
MEAN_ELEMENT_THEORY = SGP/SGP4

EPOCH          = 2026-03-11T22:55:38.240544
MEAN_MOTION    = 15.54409815
ECCENTRICITY   = .00421006
INCLINATION    = 50.1894
RA_OF_ASC_NODE = 306.6341
ARG_OF_PERICENTER = 210.3901
MEAN_ANOMALY   = 149.4628

EPHEMERIS_TYPE = 0
CLASSIFICATION_TYPE = U
NORAD_CAT_ID   = 52794
ELEMENT_SET_NO = 999
REV_AT_EPOCH   = 21048
BSTAR          = .46728825E-3
MEAN_MOTION_DOT = .3216E-3
MEAN_MOTION_DDOT = 0

CCSDS_OMM_VERS = 2.0
CREATION_DATE  = 
ORIGINATOR     = 

OBJECT_NAME    = CZ-2C R/B
OBJECT_ID      = 2022-132E
CENTER_NAME    = EARTH
REF_FRAME      = TEME
TIME_SYSTEM    = UTC
MEAN_ELEMENT_THEORY = SGP/SGP4

EPOCH          = 2026-03-11T22:25:21.648576
MEAN_MOTION    = 15.62065660
ECCENTRICITY   = .00204071
INCLINATION    = 97.2967
RA_OF_ASC_NODE = 74.3194
ARG_OF_PERICENTER = 84.1845
MEAN_ANOMALY   = 276.1738

EPHEMERIS_TYPE = 0
CLASSIFICATION_TYPE = U
NORAD_CAT_ID   = 54039
ELEMENT_SET_NO = 999
REV_AT_EPOCH   = 19072
BSTAR          = .5205731E-3
MEAN_MOTION_DOT = .46042E-3
MEAN_MOTION_DDOT = 0

CCSDS_OMM_VERS = 2.0
CREATION_DATE  = 
ORIGINATOR     = 

OBJECT_NAME    = GSLV R/B
OBJECT_ID      = 2022-138AN
CENTER_NAME    = EARTH
REF_FRAME      = TEME
TIME_SYSTEM    = UTC
MEAN_ELEMENT_THEORY = SGP/SGP4

EPOCH          = 2026-03-11T17:26:08.046528
MEAN_MOTION    = 14.96791230
ECCENTRICITY   = .00232064
INCLINATION    = 87.3873
RA_OF_ASC_NODE = 165.6803
ARG_OF_PERICENTER = 139.7353
MEAN_ANOMALY   = 220.5603

EPHEMERIS_TYPE = 0
CLASSIFICATION_TYPE = U
NORAD_CAT_ID   = 54149
ELEMENT_SET_NO = 999
REV_AT_EPOCH   = 18423
BSTAR          = .35019489E-3
MEAN_MOTION_DOT = .4056E-4
MEAN_MOTION_DDOT = 0

